{"type":"FeatureCollection","fonte":"IBGE API de Malhas v3 (qualidade=minima, intrarregiao=UF), simplificada: Douglas-Peucker 0.1 graus, 1 casa(s) decimais","features":[{"type":"Feature","properties":{"uf":"ro"},"geometry":{"type":"Polygon","coordinates":[[[-62.4,-13.1],[-62.1,-13.2],[-61.8,-13.5],[-61.0,-13.5],[-60.7,-13.7],[-60.4,-13.5],[-59.8,-12.3],[-60.1,-11.8],[-60.0,-11.1],[-61.6,-11.0],[-61.5,-9.6],[-61.6,-9.3],[-61.5,-8.9],[-61.7,-8.7],[-61.9,-8.9],[-62.1,-8.8],[-62.9,-8.0],[-63.6,-8.0],[-63.8,-8.3],[-63.9,-8.3],[-64.1,-8.9],[-64.8,-9.0],[-65.1,-9.4],[-65.3,-9.3],[-65.7,-9.6],[-66.4,-9.4],[-66.8,-9.8],[-65.4,-9.7],[-65.3,-10.2],[-65.4,-10.5],[-65.3,-11.0],[-65.4,-11.1],[-65.0,-12.0],[-64.5,-12.2],[-64.4,-12.4],[-63.1,-12.6],[-62.8,-13.0],[-62.4,-13.1]]]}},{"type":"Feature","properties":{"uf":"ac"},"geometry":{"type":"Polygon","coordinates":[[[-67.1,-9.7],[-68.6,-9.0],[-70.1,-7.8],[-72.6,-7.6],[-73.8,-7.1],[-73.7,-7.3],[-74.0,-7.4],[-74.0,-7.6],[-73.7,-7.8],[-73.5,-8.3],[-72.9,-9.1],[-73.2,-9.4],[-72.7,-9.4],[-72.3,-9.6],[-72.2,-10],[-71.4,-10],[-70.5,-9.4],[-70.6,-11.0],[-69.2,-10.9],[-68.7,-11.0],[-68.7,-11.1],[-68.2,-11.0],[-68.0,-10.6],[-67.7,-10.7],[-66.6,-9.9],[-67.1,-9.7]]]}},{"type":"Feature","properties":{"uf":"am"},"geometry":{"type":"Polygon","coordinates":[[[-58.1,-7.3],[-58.4,-6.9],[-58.4,-6.6],[-56.4,-2.3],[-56.1,-2.0],[-56.7,-2.2],[-57.1,-1.8],[-58.0,-1.4],[-58.0,-1.1],[-58.2,-1.2],[-58.3,-1.1],[-58.9,-0.3],[-58.9,0.3],[-60.0,0.3],[-60.4,-0.6],[-60.3,-0.7],[-60.5,-0.9],[-60.8,-0.8],[-60.9,-0.5],[-61.2,-0.5],[-61.5,-0.7],[-61.6,-1.3],[-61.5,-1.6],[-61.9,-1.4],[-62.5,-0.8],[-62.3,-0.6],[-62.2,-0.3],[-62.5,0.4],[-62.4,1.0],[-62.8,1.6],[-62.7,1.9],[-63.1,2.2],[-64.0,2.0],[-64.3,1.4],[-64.4,1.5],[-65.2,1.1],[-65.2,1.0],[-65.5,0.6],[-65.6,1.0],[-66.3,0.7],[-66.9,1.2],[-67.1,1.2],[-67.1,1.7],[-67.4,2.2],[-67.9,1.8],[-68.2,1.9],[-68.2,1.7],[-69.4,1.7],[-69.8,1.7],[-69.8,1.1],[-69.2,1.0],[-69.1,0.6],[-69.5,0.7],[-70.0,0.6],[-70.1,-0.2],[-69.6,-0.5],[-69.4,-1.1],[-70.0,-4.3],[-70.2,-4.4],[-70.3,-4.2],[-70.8,-4.2],[-70.9,-4.4],[-71.9,-4.5],[-72.9,-5.2],[-73.0,-5.7],[-73.3,-6.1],[-73.1,-6.4],[-73.6,-6.8],[-73.8,-7.1],[-72.6,-7.6],[-70.1,-7.8],[-68.6,-9.0],[-66.8,-9.8],[-66.4,-9.4],[-65.7,-9.6],[-65.3,-9.3],[-65.1,-9.4],[-64.8,-9.0],[-64.1,-8.9],[-63.9,-8.3],[-63.8,-8.3],[-63.6,-8.0],[-62.9,-8.0],[-62.0,-8.9],[-61.7,-8.7],[-61.6,-8.8],[-58.4,-8.8],[-58.3,-8.1],[-58.4,-7.8],[-58.1,-7.3]]]}},{"type":"Feature","properties":{"uf":"rr"},"geometry":{"type":"Polygon","coordinates":[[[-64.2,3.5],[-64.1,2.5],[-63.4,2.5],[-63.4,2.2],[-62.7,1.9],[-62.8,1.6],[-62.5,1.1],[-62.5,0.4],[-62.2,-0.3],[-62.3,-0.6],[-62.5,-0.8],[-61.9,-1.4],[-61.5,-1.6],[-61.6,-1.3],[-61.5,-0.7],[-61.2,-0.5],[-60.9,-0.5],[-60.8,-0.8],[-60.5,-0.9],[-60.3,-0.7],[-60.4,-0.6],[-60.0,0.3],[-58.9,0.3],[-58.9,1.3],[-59.3,1.4],[-59.7,1.9],[-59.7,2.3],[-60.0,2.7],[-59.9,3.6],[-59.5,3.9],[-59.7,4.4],[-60.2,4.5],[-60.0,5.1],[-60.1,5.2],[-60.7,5.2],[-60.6,5.0],[-61.0,4.5],[-61.3,4.5],[-61.6,4.3],[-62.1,4.1],[-62.4,4.2],[-62.7,4.0],[-62.7,3.7],[-63.0,3.6],[-63.2,4.0],[-63.5,3.8],[-63.7,4.0],[-64.0,3.9],[-64.2,4.1],[-64.6,4.1],[-64.8,4.3],[-64.2,3.5]]]}},{"type":"Feature","properties":{"uf":"pa"},"geometry":{"type":"Polygon","coordinates":[[[-48.2,-4.9],[-47.6,-4.6],[-46.7,-3.1],[-46.7,-2.7],[-46.3,-2.2],[-46.3,-1.7],[-46.2,-1.6],[-46.1,-1.1],[-46.2,-0.9],[-46.5,-1.0],[-46.5,-0.9],[-46.6,-1.0],[-46.6,-0.8],[-46.9,-0.9],[-47.1,-0.7],[-47.2,-0.8],[-47.5,-0.6],[-47.5,-0.7],[-47.6,-0.6],[-47.6,-0.7],[-47.9,-0.6],[-48.4,-0.9],[-48.4,-0.2],[-49.4,-0.2],[-49.4,0.1],[-49.7,0.2],[-49.5,0.3],[-50.2,0.3],[-50.0,0.5],[-50.2,0.7],[-50.6,0.2],[-51.2,-0.1],[-51.7,-0.8],[-51.7,-1.1],[-52.1,-1.2],[-52.4,-1.1],[-52.5,-0.6],[-52.9,-0.1],[-53.2,0.4],[-53.1,0.7],[-53.4,0.9],[-53.4,1.2],[-54.4,1.8],[-54.7,1.8],[-55.0,2.6],[-55.4,2.4],[-55.9,2.5],[-56.1,2.3],[-55.9,1.9],[-56.8,1.9],[-57.3,2.0],[-57.6,1.7],[-58.0,1.7],[-58.0,1.5],[-58.3,1.6],[-58.5,1.5],[-58.5,1.3],[-58.9,1.2],[-58.9,-0.3],[-58.4,-1.0],[-58.2,-1.2],[-58.0,-1.1],[-58.0,-1.4],[-57.1,-1.8],[-56.7,-2.2],[-56.1,-2.0],[-56.4,-2.3],[-58.5,-6.8],[-57.6,-8.2],[-57.6,-8.8],[-57.2,-8.9],[-56.8,-9.4],[-50.2,-9.8],[-50.0,-9.3],[-49.2,-8.2],[-49.2,-7.8],[-49.4,-7.5],[-49.2,-6.9],[-48.4,-6.3],[-48.4,-6.2],[-48.1,-5.6],[-48.8,-5.3],[-48.2,-4.9]]]}},{"type":"Feature","properties":{"uf":"ap"},"geometry":{"type":"MultiPolygon","coordinates":[[[[-50.7,2.1],[-51.1,3.5],[-51.1,3.9],[-51.6,4.5],[-51.7,4.1],[-52.4,3.1],[-52.6,2.5],[-52.9,2.2],[-53.8,2.4],[-54.2,2.2],[-54.9,2.4],[-54.7,1.8],[-54.1,1.6],[-53.4,1.2],[-53.4,0.9],[-53.1,0.7],[-53.2,0.4],[-52.9,-0.1],[-52.5,-0.6],[-52.4,-1.1],[-52.1,-1.2],[-51.7,-1.1],[-51.7,-0.8],[-51.2,-0.1],[-50.6,0.2],[-50.4,0.6],[-49.9,1.0],[-49.9,1.7],[-50.4,1.8],[-50.7,2.1]]],[[[-50.5,2.1],[-50.5,1.9],[-50.3,1.9],[-50.5,2.1]]]]}},{"type":"Feature","properties":{"uf":"to"},"geometry":{"type":"Polygon","coordinates":[[[-47.4,-6.4],[-47.6,-5.5],[-48.4,-5.2],[-48.8,-5.3],[-48.1,-5.6],[-48.2,-5.9],[-48.7,-6.7],[-49.2,-6.9],[-49.4,-7.5],[-49.2,-7.8],[-49.3,-8.4],[-50.0,-9.3],[-50.6,-10.7],[-50.7,-11.5],[-50.6,-12.8],[-50.5,-12.9],[-50.1,-12.4],[-50.3,-12.8],[-49.4,-13.3],[-49.2,-12.9],[-49.1,-12.8],[-49.0,-13.0],[-48.9,-12.8],[-48.6,-13.3],[-48.5,-13.1],[-48.5,-13.3],[-48.1,-13.2],[-48.2,-13.3],[-47.7,-13.5],[-47.6,-13.1],[-47.4,-13.3],[-46.5,-13.0],[-46.4,-12.8],[-46.4,-13.0],[-46.1,-12.9],[-46.3,-13.0],[-46.2,-12.5],[-46.4,-12.3],[-46.4,-12.0],[-46.4,-11.6],[-46.1,-11.6],[-46.4,-11.5],[-46.6,-11.3],[-45.7,-10.3],[-45.7,-10.2],[-45.9,-10.4],[-46.0,-10.2],[-46.3,-10.2],[-46.6,-9.7],[-46.6,-9.4],[-47.1,-9.1],[-46.8,-8.4],[-46.5,-8.3],[-46.5,-8.1],[-46.6,-7.9],[-47.0,-8.1],[-47.6,-7.4],[-47.5,-7.3],[-47.7,-7.2],[-47.5,-7.0],[-47.4,-6.4]]]}},{"type":"Feature","properties":{"uf":"ma"},"geometry":{"type":"Polygon","coordinates":[[[-48.0,-4.8],[-48.8,-5.3],[-48.4,-5.2],[-47.6,-5.5],[-47.4,-6.2],[-47.5,-7.0],[-47.7,-7.2],[-47.0,-8.1],[-46.5,-8.0],[-46.5,-8.3],[-46.8,-8.4],[-47.1,-9.1],[-46.5,-9.6],[-46.6,-9.7],[-46.4,-10.1],[-45.9,-10.3],[-45.8,-9.5],[-46.0,-8.9],[-45.5,-7.7],[-44.7,-7.4],[-44.1,-6.8],[-43.8,-6.7],[-43.5,-6.8],[-42.9,-6.6],[-42.8,-6.3],[-43.1,-5.9],[-43.1,-5.6],[-42.8,-5.2],[-43.0,-4.2],[-42.7,-3.8],[-42.5,-3.4],[-42.2,-3.4],[-42.0,-3.2],[-41.8,-2.7],[-42.5,-2.7],[-43.3,-2.3],[-43.7,-2.5],[-43.6,-2.3],[-43.7,-2.3],[-44.1,-2.8],[-44.3,-2.8],[-44.0,-2.4],[-44.3,-2.5],[-44.4,-2.9],[-44.7,-3.0],[-44.4,-2.3],[-44.5,-2.1],[-44.7,-2.3],[-44.5,-2.0],[-44.8,-1.7],[-44.6,-1.6],[-44.9,-1.6],[-44.9,-1.4],[-45.0,-1.6],[-45.3,-1.6],[-45.3,-1.3],[-45.5,-1.5],[-45.5,-1.3],[-45.8,-1.2],[-45.9,-1.1],[-46.0,-1.2],[-46.0,-1.1],[-46.3,-1.7],[-46.3,-2.2],[-46.7,-2.7],[-46.7,-3.1],[-46.9,-3.4],[-47.1,-3.9],[-47.6,-4.6],[-48.0,-4.8]]]}},{"type":"Feature","properties":{"uf":"pi"},"geometry":{"type":"Polygon","coordinates":[[[-40.8,-8.2],[-40.5,-8.0],[-40.7,-7.5],[-40.5,-7.4],[-40.4,-6.8],[-40.7,-6.7],[-40.9,-6.0],[-40.9,-5.2],[-41.2,-4.9],[-41.1,-4.2],[-41.4,-3.3],[-41.3,-2.9],[-41.8,-2.8],[-42.0,-3.2],[-42.2,-3.4],[-42.5,-3.4],[-43.0,-4.2],[-42.8,-5.2],[-43.1,-5.6],[-43.0,-6.1],[-42.8,-6.3],[-43.0,-6.7],[-44.1,-6.8],[-44.7,-7.4],[-45.5,-7.7],[-46.0,-8.9],[-45.8,-9.5],[-46.0,-10.3],[-45.9,-10.4],[-45.6,-10.1],[-45.2,-10.8],[-44.9,-10.9],[-44.6,-10.6],[-44.1,-10.6],[-43.7,-10.1],[-43.7,-9.8],[-43.8,-9.5],[-43.5,-9.3],[-43.0,-9.4],[-42.8,-9.6],[-42.3,-9.3],[-41.9,-9.2],[-40.8,-8.2]]]}},{"type":"Feature","properties":{"uf":"ce"},"geometry":{"type":"Polygon","coordinates":[[[-40.4,-2.8],[-41.3,-2.9],[-41.4,-3.3],[-41.1,-4.2],[-41.2,-4.9],[-40.9,-5.2],[-40.9,-6.0],[-40.7,-6.7],[-40.4,-6.8],[-40.5,-7.3],[-39.7,-7.3],[-39.0,-7.8],[-38.5,-7.3],[-38.8,-7.0],[-38.6,-6.3],[-38.2,-5.9],[-37.6,-4.9],[-37.3,-4.8],[-38.5,-3.7],[-39.9,-2.9],[-40.4,-2.8]]]}},{"type":"Feature","properties":{"uf":"rn"},"geometry":{"type":"Polygon","coordinates":[[[-36.5,-6.4],[-36.3,-6.3],[-36.0,-6.5],[-35.0,-6.5],[-35.5,-5.2],[-36.7,-5.1],[-37.3,-4.8],[-37.6,-4.9],[-37.9,-5.5],[-38.6,-6.4],[-38.1,-6.5],[-37.7,-6.2],[-37.2,-6.0],[-37.5,-6.7],[-37.2,-6.8],[-36.8,-6.7],[-36.7,-6.9],[-36.4,-6.6],[-36.5,-6.4]]]}},{"type":"Feature","properties":{"uf":"pb"},"geometry":{"type":"Polygon","coordinates":[[[-37.6,-7.5],[-37.3,-7.3],[-37.0,-7.4],[-37.4,-7.9],[-37.0,-8.3],[-36.4,-7.8],[-35.7,-7.7],[-35.3,-7.4],[-34.8,-7.5],[-35.0,-6.5],[-36.0,-6.5],[-36.3,-6.3],[-36.5,-6.4],[-36.4,-6.6],[-36.7,-6.9],[-36.8,-6.7],[-37.2,-6.8],[-37.5,-6.7],[-37.2,-6.0],[-37.7,-6.2],[-38.1,-6.5],[-38.6,-6.4],[-38.8,-6.9],[-38.6,-7.3],[-38.7,-7.6],[-38.1,-7.8],[-37.6,-7.5]]]}},{"type":"Feature","properties":{"uf":"pe"},"geometry":{"type":"Polygon","coordinates":[[[-41.4,-8.7],[-41.1,-8.7],[-40.9,-9.0],[-40.7,-9.2],[-40.8,-9.4],[-40.6,-9.5],[-40.4,-9.4],[-40.3,-9.1],[-40.0,-9.1],[-39.9,-8.8],[-39.4,-8.5],[-38.6,-9.0],[-38.5,-8.9],[-38.2,-9.3],[-37.8,-8.8],[-37.0,-9.4],[-36.6,-9.3],[-36.0,-8.9],[-35.2,-8.9],[-34.8,-7.5],[-35.2,-7.4],[-35.5,-7.5],[-35.7,-7.7],[-36.4,-7.8],[-37.0,-8.3],[-37.4,-7.9],[-37.0,-7.5],[-37.3,-7.3],[-38.1,-7.8],[-38.7,-7.6],[-39.1,-7.9],[-39.7,-7.3],[-40.5,-7.3],[-40.7,-7.5],[-40.6,-8.1],[-41.4,-8.7]]]}},{"type":"Feature","properties":{"uf":"al"},"geometry":{"type":"Polygon","coordinates":[[[-38.0,-9.2],[-38.2,-9.4],[-37.1,-9.9],[-36.4,-10.5],[-35.3,-9.2],[-35.2,-8.9],[-35.5,-8.8],[-36.0,-8.9],[-36.4,-9.2],[-36.9,-9.4],[-37.8,-8.8],[-38.0,-9.2]]]}},{"type":"Feature","properties":{"uf":"se"},"geometry":{"type":"Polygon","coordinates":[[[-36.9,-10.1],[-38.0,-9.5],[-38.0,-9.9],[-37.8,-10.0],[-37.7,-10.3],[-37.8,-10.7],[-38.2,-10.7],[-38.2,-10.9],[-37.8,-11.5],[-37.3,-11.4],[-36.9,-10.7],[-36.4,-10.5],[-36.9,-10.1]]]}},{"type":"Feature","properties":{"uf":"ba"},"geometry":{"type":"Polygon","coordinates":[[[-39.4,-8.5],[-39.9,-8.8],[-40.0,-9.1],[-40.3,-9.1],[-40.4,-9.4],[-40.6,-9.5],[-40.8,-9.4],[-40.7,-9.2],[-41.1,-8.7],[-41.4,-8.7],[-41.9,-9.2],[-42.3,-9.3],[-42.8,-9.6],[-43.4,-9.3],[-43.8,-9.5],[-43.7,-9.8],[-43.7,-10.1],[-44.2,-10.6],[-44.6,-10.6],[-44.9,-10.9],[-45.2,-10.8],[-45.6,-10.1],[-46.3,-10.8],[-46.6,-11.4],[-46.1,-11.6],[-46.4,-11.6],[-46.4,-12.0],[-46.4,-12.3],[-46.2,-12.5],[-46.3,-13.0],[-46.1,-12.9],[-46.3,-13.3],[-46.1,-13.3],[-46.2,-13.4],[-46.3,-13.9],[-45.9,-14.4],[-46.1,-15.3],[-44.3,-14.3],[-43.8,-14.3],[-43.9,-14.7],[-43.5,-14.8],[-43.3,-14.7],[-42.9,-14.7],[-42.3,-15.1],[-41.8,-15.1],[-41.4,-15.5],[-41.3,-15.7],[-40.7,-15.7],[-39.9,-16],[-39.9,-16.3],[-40.3,-16.6],[-40.3,-16.9],[-40.5,-16.9],[-40.6,-17.4],[-40.2,-17.7],[-40.2,-18.0],[-39.7,-18.3],[-39.1,-17.7],[-39.2,-17.2],[-38.9,-15.8],[-39.1,-14.7],[-38.9,-13.2],[-38.3,-12.9],[-37.3,-11.4],[-37.8,-11.5],[-38.2,-10.9],[-38.2,-10.7],[-37.8,-10.7],[-37.7,-10.3],[-38.3,-9.0],[-39.4,-8.5]]]}},{"type":"Feature","properties":{"uf":"mg"},"geometry":{"type":"Polygon","coordinates":[[[-47.7,-18.4],[-48.0,-18.5],[-48.3,-18.3],[-48.9,-18.3],[-49.4,-18.6],[-49.5,-18.5],[-50.3,-18.7],[-50.9,-19.5],[-51.0,-20.1],[-50.5,-19.8],[-49.3,-20.0],[-49.3,-20.3],[-49.0,-20.2],[-48.9,-20.4],[-48.8,-20.2],[-47.5,-20.0],[-47.2,-20.2],[-47.3,-20.4],[-47.1,-20.7],[-47.2,-20.9],[-47.0,-21.4],[-46.5,-21.5],[-46.7,-22.3],[-46.5,-22.5],[-46.3,-22.9],[-45.9,-22.9],[-45.7,-22.6],[-45.4,-22.7],[-43.8,-22.1],[-43.1,-22.1],[-42.3,-21.7],[-42.3,-21.5],[-41.8,-20.2],[-41.4,-20.2],[-41.0,-19.5],[-41.0,-19.1],[-41.2,-18.9],[-40.9,-18.8],[-41.2,-18.3],[-40.8,-18.1],[-40.9,-18.0],[-40.2,-18.0],[-40.2,-17.7],[-40.6,-17.4],[-40.5,-16.9],[-40.3,-16.9],[-40.3,-16.6],[-39.9,-16.1],[-40.2,-15.8],[-40.8,-15.6],[-41.3,-15.7],[-41.4,-15.5],[-41.8,-15.1],[-42.3,-15.1],[-43.2,-14.7],[-43.5,-14.8],[-43.9,-14.7],[-43.8,-14.3],[-44.0,-14.3],[-44.6,-14.3],[-46.1,-15.3],[-46.0,-15.0],[-46.5,-14.7],[-46.5,-15.1],[-46.9,-15.1],[-46.8,-15.9],[-47.3,-16.0],[-47.5,-16.5],[-47.1,-17.0],[-47.5,-17.5],[-47.3,-17.6],[-47.3,-18.0],[-47.7,-18.4]]]}},{"type":"Feature","properties":{"uf":"es"},"geometry":{"type":"Polygon","coordinates":[[[-41.3,-19.9],[-41.4,-20.2],[-41.8,-20.2],[-41.9,-20.8],[-41.7,-21.1],[-41.0,-21.3],[-39.7,-19.3],[-39.7,-18.3],[-40.4,-17.9],[-40.9,-18.0],[-40.8,-18.1],[-41.1,-18.2],[-41.2,-18.4],[-41.0,-18.5],[-40.9,-18.8],[-41.2,-18.9],[-41.0,-19.1],[-41.0,-19.5],[-41.3,-19.9]]]}},{"type":"Feature","properties":{"uf":"rj"},"geometry":{"type":"MultiPolygon","coordinates":[[[[-44.6,-22.9],[-44.9,-23.2],[-44.7,-23.4],[-44.5,-23.3],[-44.7,-23.2],[-44.7,-23.1],[-44.3,-22.9],[-44.3,-23.0],[-43.9,-22.9],[-43.3,-23.0],[-43.2,-22.7],[-43.0,-22.7],[-43.0,-23.0],[-42.0,-22.9],[-42.0,-22.6],[-41.0,-21.9],[-41.1,-21.5],[-41.0,-21.3],[-41.6,-21.1],[-41.8,-20.8],[-41.9,-20.8],[-42.2,-21.0],[-42.4,-21.6],[-42.3,-21.7],[-43.1,-22.1],[-43.8,-22.1],[-44.8,-22.4],[-44.6,-22.6],[-44.2,-22.7],[-44.6,-22.9]]],[[[-43.8,-23.1],[-44.0,-23.0],[-43.8,-23.1],[-43.7,-23.0],[-43.8,-23.1]]]]}},{"type":"Feature","properties":{"uf":"sp"},"geometry":{"type":"MultiPolygon","coordinates":[[[[-46.7,-21.8],[-46.5,-21.5],[-47.0,-21.4],[-47.2,-20.9],[-47.1,-20.7],[-47.3,-20.4],[-47.2,-20.2],[-47.5,-20.0],[-48.8,-20.2],[-48.9,-20.4],[-49.0,-20.2],[-49.3,-20.3],[-49.3,-20.0],[-50.6,-19.8],[-51.3,-20.4],[-52.4,-22.1],[-53.1,-22.6],[-52.2,-22.7],[-52.0,-22.5],[-51.3,-22.7],[-50.8,-23.0],[-50.1,-22.9],[-49.7,-23.1],[-49.6,-23.8],[-49.3,-24.3],[-49.3,-24.7],[-48.6,-24.7],[-48.6,-25.1],[-48.2,-25.0],[-48.1,-25.3],[-46.7,-24.1],[-45.8,-23.8],[-45.4,-23.8],[-45.4,-23.6],[-44.7,-23.4],[-44.9,-23.2],[-44.8,-23.0],[-44.2,-22.7],[-44.6,-22.6],[-44.8,-22.4],[-45.4,-22.7],[-45.7,-22.6],[-45.9,-22.9],[-46.3,-22.9],[-46.5,-22.5],[-46.7,-22.3],[-46.6,-22.1],[-46.7,-21.8]]],[[[-45.3,-23.9],[-45.3,-23.7],[-45.4,-23.9],[-45.3,-23.9]]]]}},{"type":"Feature","properties":{"uf":"pr"},"geometry":{"type":"Polygon","coordinates":[[[-49.1,-24.7],[-49.3,-24.7],[-49.3,-24.3],[-49.6,-23.8],[-49.6,-23.3],[-50.0,-23.0],[-50.8,-23.0],[-51.3,-22.7],[-52.1,-22.5],[-52.2,-22.7],[-52.9,-22.6],[-53.5,-22.9],[-54.3,-24.2],[-54.3,-24.7],[-54.6,-25.6],[-54.0,-25.6],[-53.6,-26.3],[-51.5,-26.6],[-51.4,-26.7],[-51.2,-26.6],[-51.2,-26.3],[-50.9,-26.3],[-50.6,-26.0],[-50.4,-26.1],[-49.9,-26.0],[-49.6,-26.2],[-49.2,-26.0],[-48.6,-26.0],[-48.1,-25.3],[-48.2,-25.0],[-48.6,-25.1],[-48.6,-24.7],[-49.1,-24.7]]]}},{"type":"Feature","properties":{"uf":"sc"},"geometry":{"type":"Polygon","coordinates":[[[-52.4,-26.4],[-53.6,-26.3],[-53.7,-26.9],[-53.8,-27.2],[-53.0,-27.1],[-53.0,-27.2],[-52.4,-27.2],[-51.6,-27.5],[-51.1,-27.9],[-50.6,-28.4],[-49.7,-28.5],[-50.0,-28.9],[-50.1,-29.3],[-49.7,-29.3],[-48.7,-28.5],[-48.4,-27.4],[-48.6,-27.3],[-48.5,-27.1],[-48.7,-26.7],[-48.5,-26.2],[-48.6,-26.0],[-49.2,-26.0],[-49.6,-26.2],[-49.9,-26.0],[-50.4,-26.1],[-50.6,-26.0],[-50.9,-26.3],[-51.2,-26.3],[-51.2,-26.6],[-51.4,-26.7],[-51.5,-26.6],[-52.4,-26.4]]]}},{"type":"Feature","properties":{"uf":"rs"},"geometry":{"type":"Polygon","coordinates":[[[-53.9,-32.0],[-53.6,-32.4],[-53.2,-32.7],[-52.6,-32.1],[-52.7,-32.8],[-53.1,-32.8],[-53.5,-33.5],[-53.4,-33.7],[-52.8,-33.3],[-52.1,-32.2],[-52.2,-31.8],[-52.0,-31.7],[-51.9,-31.3],[-51.4,-31.1],[-51.4,-30.6],[-51.1,-30.4],[-51.3,-30.1],[-50.9,-30.4],[-50.6,-30.2],[-50.6,-30.5],[-50.7,-30.4],[-50.7,-30.7],[-51.2,-31.1],[-51.2,-31.5],[-51.7,-31.8],[-52.1,-31.8],[-52.1,-32.1],[-50.8,-31.2],[-50.3,-30.5],[-49.7,-29.3],[-50.1,-29.3],[-50.0,-29.1],[-49.9,-28.7],[-49.7,-28.6],[-49.8,-28.5],[-50.6,-28.4],[-51.1,-27.9],[-51.6,-27.5],[-52.4,-27.2],[-53.0,-27.2],[-53.0,-27.1],[-53.9,-27.2],[-54.3,-27.4],[-54.8,-27.5],[-55.1,-27.9],[-55.8,-28.2],[-55.7,-28.4],[-55.9,-28.4],[-56.0,-28.5],[-57.6,-30.3],[-57.2,-30.3],[-57.1,-30.1],[-56.9,-30.1],[-56.0,-30.8],[-56.0,-31.1],[-55.6,-30.8],[-55.2,-31.3],[-54.6,-31.5],[-53.9,-32.0]]]}},{"type":"Feature","properties":{"uf":"ms"},"geometry":{"type":"Polygon","coordinates":[[[-53.4,-18.0],[-54.0,-17.9],[-53.7,-17.7],[-53.7,-17.3],[-54.3,-17.7],[-54.5,-17.5],[-55.1,-17.7],[-56.0,-17.2],[-56.7,-17.3],[-57.1,-17.8],[-57.4,-17.9],[-57.8,-17.6],[-57.5,-18.2],[-58.1,-19.8],[-57.9,-20.0],[-58.2,-20.2],[-57.8,-20.9],[-58.0,-22.1],[-56.8,-22.3],[-56.4,-22.1],[-56.2,-22.3],[-55.8,-22.3],[-55.7,-22.6],[-55.4,-24.0],[-54.7,-23.8],[-54.3,-24.1],[-53.5,-22.9],[-52.4,-22.1],[-51.6,-20.9],[-51.6,-20.6],[-51.0,-20.1],[-50.9,-19.5],[-51.1,-19.3],[-52.5,-18.7],[-52.9,-18.6],[-53.0,-18.6],[-52.8,-18.4],[-53.1,-18.3],[-53.1,-18.0],[-53.4,-18.0]]]}},{"type":"Feature","properties":{"uf":"mt"},"geometry":{"type":"Polygon","coordinates":[[[-56.3,-9.4],[-56.8,-9.4],[-57.2,-8.9],[-57.6,-8.8],[-57.6,-8.2],[-58.1,-7.4],[-58.4,-7.8],[-58.3,-8.1],[-58.4,-8.8],[-61.6,-8.8],[-61.5,-8.9],[-61.6,-9.3],[-61.5,-9.6],[-61.6,-11.0],[-60.5,-11.0],[-60.0,-11.1],[-59.9,-11.3],[-60.1,-11.6],[-60.1,-11.8],[-59.8,-12.3],[-60.4,-13.5],[-60.7,-13.7],[-60.4,-14.0],[-60.5,-14.3],[-60.2,-15.1],[-60.6,-15.1],[-60.2,-15.5],[-60.2,-16.3],[-58.3,-16.3],[-58.4,-17.2],[-57.4,-17.9],[-57.1,-17.8],[-56.7,-17.3],[-56.0,-17.2],[-55.6,-17.4],[-55.1,-17.7],[-54.5,-17.5],[-54.3,-17.7],[-53.7,-17.3],[-53.7,-17.7],[-54.0,-17.9],[-53.1,-18.0],[-53.2,-17.3],[-52.6,-16.5],[-52.7,-16.3],[-52.3,-15.9],[-51.9,-15.8],[-51.5,-15.1],[-51.1,-14.9],[-50.9,-13.7],[-50.5,-12.9],[-50.7,-12.6],[-50.7,-11.5],[-50.6,-10.7],[-50.2,-9.8],[-56.3,-9.4]]]}},{"type":"Feature","properties":{"uf":"go"},"geometry":{"type":"Polygon","coordinates":[[[-48.2,-15.7],[-48.2,-15.5],[-47.5,-15.5],[-47.3,-15.6],[-47.3,-16.0],[-46.8,-15.9],[-46.9,-15.1],[-46.5,-15.1],[-46.5,-14.7],[-46.3,-14.9],[-46.0,-14.9],[-45.9,-14.4],[-46.3,-13.9],[-46.2,-13.4],[-46.1,-13.3],[-46.3,-13.3],[-46.1,-12.9],[-46.4,-13.0],[-46.4,-12.8],[-46.5,-13.0],[-47.4,-13.3],[-47.6,-13.1],[-47.7,-13.5],[-48.2,-13.3],[-48.1,-13.2],[-48.5,-13.3],[-48.5,-13.1],[-48.6,-13.3],[-48.6,-13.0],[-49.1,-12.8],[-49.4,-13.3],[-50.3,-12.8],[-50.1,-12.4],[-50.4,-12.6],[-50.9,-13.7],[-51.1,-14.9],[-51.5,-15.1],[-51.7,-15.5],[-51.9,-15.8],[-52.3,-15.9],[-52.7,-16.3],[-52.6,-16.5],[-53.2,-17.3],[-53.2,-17.7],[-53.1,-18.3],[-52.8,-18.4],[-52.9,-18.6],[-52.5,-18.7],[-50.8,-19.5],[-50.3,-18.7],[-49.5,-18.5],[-49.4,-18.6],[-48.9,-18.3],[-48.3,-18.3],[-48.0,-18.5],[-47.3,-18.0],[-47.3,-17.6],[-47.5,-17.5],[-47.1,-17.0],[-47.5,-16.5],[-47.3,-16.1],[-48.3,-16.0],[-48.2,-15.7]]]}},{"type":"Feature","properties":{"uf":"df"},"geometry":{"type":"Polygon","coordinates":[[[-48.0,-16.0],[-47.3,-16.1],[-47.3,-15.6],[-48.1,-15.5],[-48.2,-15.5],[-48.3,-16.0],[-48.0,-16.0]]]}}]}